{"type": "FeatureCollection", "features": [{"type": "Feature", "properties": {"norad_id": 28890, "name": "BEIJING 1", "group": "dmc", "lat": 50.49332123524123, "lon": 93.98891370215591, "alt_km": 683.0535595660785, "timestamp": "2025-12-02T15:49:06.849638+00:00", "meta": {"OBJECT_NAME": "BEIJING 1", "OBJECT_ID": "2005-043A", "EPOCH": "2025-12-02T07:22:46.091424", "MEAN_MOTION": 14.63349891, "ECCENTRICITY": 0.00147726, "INCLINATION": 98.2649, "RA_OF_ASC_NODE": 103.7902, "ARG_OF_PERICENTER": 173.0999, "MEAN_ANOMALY": 187.0409, "EPHEMERIS_TYPE": 0, "CLASSIFICATION_TYPE": "U", "NORAD_CAT_ID": 28890, "ELEMENT_SET_NO": 999, "REV_AT_EPOCH": 7185, "BSTAR": 0.00012580272, "MEAN_MOTION_DOT": 6.02e-06, "MEAN_MOTION_DDOT": 0}, "tle": {"line1": "1 28890U 05043A   25336.30747791  .00000602  00000+0  12580-3 0  9992", "line2": "2 28890  98.2649 103.7902 0014772 173.0999 187.0409 14.63349891 71856"}}, "geometry": {"type": "Point", "coordinates": [93.98891370215591, 50.49332123524123]}}, {"type": "Feature", "properties": {"norad_id": 33320, "name": "HUANJING 1A (HJ-1A)", "group": "dmc", "lat": 72.47423436777244, "lon": -59.8228853700138, "alt_km": 597.5299572297572, "timestamp": "2025-12-02T15:49:06.849661+00:00", "meta": {"OBJECT_NAME": "HUANJING 1A (HJ-1A)", "OBJECT_ID": "2008-041A", "EPOCH": "2025-12-02T07:23:29.992992", "MEAN_MOTION": 14.83340591, "ECCENTRICITY": 0.00206811, "INCLINATION": 97.6535, "RA_OF_ASC_NODE": 325.043, "ARG_OF_PERICENTER": 66.6475, "MEAN_ANOMALY": 293.6913, "EPHEMERIS_TYPE": 0, "CLASSIFICATION_TYPE": "U", "NORAD_CAT_ID": 33320, "ELEMENT_SET_NO": 999, "REV_AT_EPOCH": 92921, "BSTAR": 0.00024703614, "MEAN_MOTION_DOT": 1.98e-05, "MEAN_MOTION_DDOT": 0}, "tle": {"line1": "1 33320U 08041A   25336.30798603  .00001980  00000+0  24704-3 0  9996", "line2": "2 33320  97.6535 325.0430 0020681  66.6475 293.6913 14.83340591929210"}}, "geometry": {"type": "Point", "coordinates": [-59.8228853700138, 72.47423436777244]}}, {"type": "Feature", "properties": {"norad_id": 33321, "name": "HUANJING 1B (HJ-1B)", "group": "dmc", "lat": -43.89942954796477, "lon": -23.476285066087822, "alt_km": 650.8009076904655, "timestamp": "2025-12-02T15:49:06.849676+00:00", "meta": {"OBJECT_NAME": "HUANJING 1B (HJ-1B)", "OBJECT_ID": "2008-041B", "EPOCH": "2025-12-02T06:18:06.792768", "MEAN_MOTION": 14.82777192, "ECCENTRICITY": 0.00381363, "INCLINATION": 97.6395, "RA_OF_ASC_NODE": 328.7237, "ARG_OF_PERICENTER": 108.8738, "MEAN_ANOMALY": 251.6618, "EPHEMERIS_TYPE": 0, "CLASSIFICATION_TYPE": "U", "NORAD_CAT_ID": 33321, "ELEMENT_SET_NO": 999, "REV_AT_EPOCH": 92922, "BSTAR": 0.00019698886, "MEAN_MOTION_DOT": 1.561e-05, "MEAN_MOTION_DDOT": 0}, "tle": {"line1": "1 33321U 08041B   25336.26257862  .00001561  00000+0  19699-3 0  9991", "line2": "2 33321  97.6395 328.7237 0038136 108.8738 251.6618 14.82777192929222"}}, "geometry": {"type": "Point", "coordinates": [-23.476285066087822, -43.89942954796477]}}, {"type": "Feature", "properties": {"norad_id": 33446, "name": "YAOGAN-4", "group": "dmc", "lat": -51.72415329178223, "lon": 76.70073531221767, "alt_km": 633.7555048860559, "timestamp": "2025-12-02T15:49:06.849688+00:00", "meta": {"OBJECT_NAME": "YAOGAN-4", "OBJECT_ID": "2008-061A", "EPOCH": "2025-12-02T06:40:27.864192", "MEAN_MOTION": 14.82628721, "ECCENTRICITY": 0.00144944, "INCLINATION": 97.9168, "RA_OF_ASC_NODE": 266.481, "ARG_OF_PERICENTER": 358.2304, "MEAN_ANOMALY": 1.8855, "EPHEMERIS_TYPE": 0, "CLASSIFICATION_TYPE": "U", "NORAD_CAT_ID": 33446, "ELEMENT_SET_NO": 999, "REV_AT_EPOCH": 91648, "BSTAR": 0.00026740206, "MEAN_MOTION_DOT": 2.104e-05, "MEAN_MOTION_DDOT": 0}, "tle": {"line1": "1 33446U 08061A   25336.27810028  .00002104  00000+0  26740-3 0  9990", "line2": "2 33446  97.9168 266.4810 0014494 358.2304   1.8855 14.82628721916482"}}, "geometry": {"type": "Point", "coordinates": [76.70073531221767, -51.72415329178223]}}, {"type": "Feature", "properties": {"norad_id": 35681, "name": "DEIMOS-1", "group": "dmc", "lat": -75.68393710080763, "lon": 169.81702822853313, "alt_km": 654.5818345345933, "timestamp": "2025-12-02T15:49:06.849699+00:00", "meta": {"OBJECT_NAME": "DEIMOS-1", "OBJECT_ID": "2009-041A", "EPOCH": "2025-12-02T08:01:49.848672", "MEAN_MOTION": 14.7492654, "ECCENTRICITY": 0.00026654, "INCLINATION": 97.7145, "RA_OF_ASC_NODE": 137.4228, "ARG_OF_PERICENTER": 98.4794, "MEAN_ANOMALY": 261.6718, "EPHEMERIS_TYPE": 0, "CLASSIFICATION_TYPE": "U", "NORAD_CAT_ID": 35681, "ELEMENT_SET_NO": 999, "REV_AT_EPOCH": 87786, "BSTAR": 0.00015613794, "MEAN_MOTION_DOT": 1.001e-05, "MEAN_MOTION_DDOT": 0}, "tle": {"line1": "1 35681U 09041A   25336.33460473  .00001001  00000+0  15614-3 0  9997", "line2": "2 35681  97.7145 137.4228 0002665  98.4794 261.6718 14.74926540877864"}}, "geometry": {"type": "Point", "coordinates": [169.81702822853313, -75.68393710080763]}}, {"type": "Feature", "properties": {"norad_id": 35683, "name": "UK-DMC 2", "group": "dmc", "lat": -81.586055946052, "lon": -179.18218793782944, "alt_km": 651.5323982471155, "timestamp": "2025-12-02T15:49:06.849709+00:00", "meta": {"OBJECT_NAME": "UK-DMC 2", "OBJECT_ID": "2009-041C", "EPOCH": "2025-12-02T08:04:30.379008", "MEAN_MOTION": 14.75583931, "ECCENTRICITY": 0.00012688, "INCLINATION": 97.8556, "RA_OF_ASC_NODE": 111.5337, "ARG_OF_PERICENTER": 102.817, "MEAN_ANOMALY": 257.3182, "EPHEMERIS_TYPE": 0, "CLASSIFICATION_TYPE": "U", "NORAD_CAT_ID": 35683, "ELEMENT_SET_NO": 999, "REV_AT_EPOCH": 87753, "BSTAR": 0.00021424822, "MEAN_MOTION_DOT": 1.412e-05, "MEAN_MOTION_DDOT": 0}, "tle": {"line1": "1 35683U 09041C   25336.33646272  .00001412  00000+0  21425-3 0  9995", "line2": "2 35683  97.8556 111.5337 0001268 102.8170 257.3182 14.75583931877538"}}, "geometry": {"type": "Point", "coordinates": [-179.18218793782944, -81.586055946052]}}, {"type": "Feature", "properties": {"norad_id": 40715, "name": "DMC3-FM1", "group": "dmc", "lat": -33.59443601578358, "lon": -150.64601252650036, "alt_km": 615.2467367177323, "timestamp": "2025-12-02T15:49:06.849720+00:00", "meta": {"OBJECT_NAME": "DMC3-FM1", "OBJECT_ID": "2015-032A", "EPOCH": "2025-12-02T06:16:14.306880", "MEAN_MOTION": 14.85410354, "ECCENTRICITY": 0.00054279, "INCLINATION": 97.67, "RA_OF_ASC_NODE": 203.8349, "ARG_OF_PERICENTER": 358.2138, "MEAN_ANOMALY": 1.9057, "EPHEMERIS_TYPE": 0, "CLASSIFICATION_TYPE": "U", "NORAD_CAT_ID": 40715, "ELEMENT_SET_NO": 999, "REV_AT_EPOCH": 56067, "BSTAR": 0.00013303849, "MEAN_MOTION_DOT": 1.095e-05, "MEAN_MOTION_DDOT": 0}, "tle": {"line1": "1 40715U 15032A   25336.26127670  .00001095  00000+0  13304-3 0  9996", "line2": "2 40715  97.6700 203.8349 0005427 358.2138   1.9057 14.85410354560676"}}, "geometry": {"type": "Point", "coordinates": [-150.64601252650036, -33.59443601578358]}}, {"type": "Feature", "properties": {"norad_id": 40716, "name": "DMC3-FM2", "group": "dmc", "lat": -25.753468632378375, "lon": 21.924458865855826, "alt_km": 621.8327473756462, "timestamp": "2025-12-02T15:49:06.849730+00:00", "meta": {"OBJECT_NAME": "DMC3-FM2", "OBJECT_ID": "2015-032B", "EPOCH": "2025-12-02T06:48:38.997216", "MEAN_MOTION": 14.85411811, "ECCENTRICITY": 0.00060744, "INCLINATION": 97.6757, "RA_OF_ASC_NODE": 205.293, "ARG_OF_PERICENTER": 2.1352, "MEAN_ANOMALY": 357.9888, "EPHEMERIS_TYPE": 0, "CLASSIFICATION_TYPE": "U", "NORAD_CAT_ID": 40716, "ELEMENT_SET_NO": 999, "REV_AT_EPOCH": 56067, "BSTAR": 0.00014258823, "MEAN_MOTION_DOT": 1.177e-05, "MEAN_MOTION_DDOT": 0}, "tle": {"line1": "1 40716U 15032B   25336.28378469  .00001177  00000+0  14259-3 0  9994", "line2": "2 40716  97.6757 205.2930 0006074   2.1352 357.9888 14.85411811560678"}}, "geometry": {"type": "Point", "coordinates": [21.924458865855826, -25.753468632378375]}}, {"type": "Feature", "properties": {"norad_id": 40717, "name": "DMC3-FM3", "group": "dmc", "lat": 82.27815526035741, "lon": 111.75106221065951, "alt_km": 604.690783195163, "timestamp": "2025-12-02T15:49:06.849741+00:00", "meta": {"OBJECT_NAME": "DMC3-FM3", "OBJECT_ID": "2015-032C", "EPOCH": "2025-12-02T05:42:41.834016", "MEAN_MOTION": 14.854053, "ECCENTRICITY": 0.00054308, "INCLINATION": 97.6812, "RA_OF_ASC_NODE": 206.875, "ARG_OF_PERICENTER": 4.418, "MEAN_ANOMALY": 355.7083, "EPHEMERIS_TYPE": 0, "CLASSIFICATION_TYPE": "U", "NORAD_CAT_ID": 40717, "ELEMENT_SET_NO": 999, "REV_AT_EPOCH": 56067, "BSTAR": 0.00010255731, "MEAN_MOTION_DOT": 8.32e-06, "MEAN_MOTION_DDOT": 0}, "tle": {"line1": "1 40717U 15032C   25336.23798419  .00000832  00000+0  10256-3 0  9991", "line2": "2 40717  97.6812 206.8750 0005430   4.4180 355.7083 14.85405300560676"}}, "geometry": {"type": "Point", "coordinates": [111.75106221065951, 82.27815526035741]}}]}